{
    "links": {
        "self": "http://www.neowsapp.com/rest/v1/neo/3618403?api_key=iIulBulltgU6a56xZRHN4H3l9WmuAYTsLGpBGhQ2"
    },
    "id": "3618403",
    "neo_reference_id": "3618403",
    "name": "(2012 WQ3)",
    "designation": "2012 WQ3",
    "nasa_jpl_url": "http://ssd.jpl.nasa.gov/sbdb.cgi?sstr=3618403",
    "absolute_magnitude_h": 25.4,
    "estimated_diameter": {
        "kilometers": {
            "estimated_diameter_min": 0.022108281,
            "estimated_diameter_max": 0.0494356193
        },
        "meters": {
            "estimated_diameter_min": 22.1082810359,
            "estimated_diameter_max": 49.435619262
        },
        "miles": {
            "estimated_diameter_min": 0.0137374447,
            "estimated_diameter_max": 0.0307178602
        },
        "feet": {
            "estimated_diameter_min": 72.5337327539,
            "estimated_diameter_max": 162.1903570994
        }
    },
    "is_potentially_hazardous_asteroid": false,
    "close_approach_data": [
        {
            "close_approach_date": "2012-11-16",
            "close_approach_date_full": "2012-Nov-16 05:43",
            "epoch_date_close_approach": 1353044580000,
            "relative_velocity": {
                "kilometers_per_second": "23.0266930234",
                "kilometers_per_hour": "82896.0948841889",
                "miles_per_hour": "51508.4096240117"
            },
            "miss_distance": {
                "astronomical": "0.0060228022",
                "lunar": "2.3428700558",
                "kilometers": "900998.380551314",
                "miles": "559854.4328795732"
            },
            "orbiting_body": "Moon"
        },
        {
            "close_approach_date": "2012-11-16",
            "close_approach_date_full": "2012-Nov-16 09:38",
            "epoch_date_close_approach": 1353058680000,
            "relative_velocity": {
                "kilometers_per_second": "23.5858564072",
                "kilometers_per_hour": "84909.0830657926",
                "miles_per_hour": "52759.2021971865"
            },
            "miss_distance": {
                "astronomical": "0.0048812157",
                "lunar": "1.8987929073",
                "kilometers": "730219.471730559",
                "miles": "453737.3396533542"
            },
            "orbiting_body": "Earth"
        },
        {
            "close_approach_date": "2050-11-17",
            "close_approach_date_full": "2050-Nov-17 17:18",
            "epoch_date_close_approach": 2552318280000,
            "relative_velocity": {
                "kilometers_per_second": "5.7951660088",
                "kilometers_per_hour": "20862.5976316945",
                "miles_per_hour": "12963.2068450937"
            },
            "miss_distance": {
                "astronomical": "1.1697203244",
                "lunar": "455.0212061916",
                "kilometers": "174987669.025949028",
                "miles": "108732295.5491834664"
            },
            "orbiting_body": "Juptr"
        },
        {
            "close_approach_date": "2074-09-25",
            "close_approach_date_full": "2074-Sep-25 20:36",
            "epoch_date_close_approach": 3305133360000,
            "relative_velocity": {
                "kilometers_per_second": "20.0492722263",
                "kilometers_per_hour": "72177.3800146609",
                "miles_per_hour": "44848.2170429986"
            },
            "miss_distance": {
                "astronomical": "0.409939319",
                "lunar": "159.466395091",
                "kilometers": "61326048.95165053",
                "miles": "38106239.808736114"
            },
            "orbiting_body": "Earth"
        }
    ],
    "orbital_data": {
        "orbit_id": "6",
        "orbit_determination_date": "2017-04-06 08:47:55",
        "first_observation_date": "2012-11-20",
        "last_observation_date": "2012-11-24",
        "data_arc_in_days": 4,
        "observations_used": 29,
        "orbit_uncertainty": "8",
        "minimum_orbit_intersection": ".00210353",
        "jupiter_tisserand_invariant": "3.054",
        "epoch_osculation": "2456253.5",
        "eccentricity": ".7690306200215449",
        "semi_major_axis": "2.373525574652721",
        "inclination": "3.25949882565758",
        "ascending_node_longitude": "52.40079360578906",
        "orbital_period": "1335.639641220474",
        "perihelion_distance": ".5482117303405454",
        "perihelion_argument": "270.6901174406082",
        "aphelion_distance": "4.198839418964896",
        "perihelion_time": "2456203.570227788667",
        "mean_anomaly": "13.45776019320228",
        "mean_motion": ".2695337790895761",
        "equinox": "J2000",
        "orbit_class": {
            "orbit_class_type": "APO",
            "orbit_class_description": "Near-Earth asteroid orbits which cross the Earth’s orbit similar to that of 1862 Apollo",
            "orbit_class_range": "a (semi-major axis) > 1.0 AU; q (perihelion) < 1.017 AU"
        }
    },
    "is_sentry_object": false
}